ONEWEB-0603             
1 54667U 22166AB  24039.54716545 -.00000096  00000+0 -26372-3 0  9999
2 54667  87.9207  55.0853 0001816 107.3659 252.7674 13.21827391 58379
ONEWEB-0604             
1 54668U 22166AC  24039.61026591  .00000075  00000+0  15081-3 0  9993
2 54668  87.9200  55.0619 0002262  94.2661 265.8732 13.21826251 57885
ONEWEB-0605             
1 54669U 22166AD  24040.05812525  .00000101  00000+0  21399-3 0  9993
2 54669  87.9198  55.0063 0001561 111.6946 248.4354 13.21827040 58487
ONEWEB-0606             
1 54670U 22166AE  24039.55032407  .00000042  00000+0  69261-4 0  9996
2 54670  87.9207  55.0906 0001929  85.2415 274.8939 13.21827553 58460
ONEWEB-0607             
1 54671U 22166AF  24039.59290285  .00000078  00000+0  15736-3 0  9997
2 54671  87.9204  55.0640 0001856 103.0558 257.0784 13.21828544 57987
ONEWEB-0608             
1 54672U 22166AG  24039.59920909 -.00000233  00000+0 -59551-3 0  9999
2 54672  87.9207  55.0768 0001658 113.8429 246.2879 13.21825601 57995
ONEWEB-0610             
1 54673U 22166AH  24039.58028720  .00000068  00000+0  13233-3 0  9990
2 54673  87.9202  55.0820 0001674 108.1950 251.9366 13.21823525 58363
ONEWEB-0611             
1 54674U 22166AJ  24039.57397905  .00000026  00000+0  30970-4 0  9996
2 54674  87.9203  55.0830 0002222  82.8085 277.3301 13.21827463 57885
